OBJECT_NAME,OBJECT_ID,EPOCH,MEAN_MOTION,ECCENTRICITY,INCLINATION,RA_OF_ASC_NODE,ARG_OF_PERICENTER,MEAN_ANOMALY,EPHEMERIS_TYPE,CLASSIFICATION_TYPE,NORAD_CAT_ID,ELEMENT_SET_NO,REV_AT_EPOCH,BSTAR,MEAN_MOTION_DOT,MEAN_MOTION_DDOT
ASNARO-2,2018-007A,2026-06-30T18:59:57.181920,15.22425156,.00015667,97.3968,188.5061,90.6962,269.4454,0,U,43152,999,46948,.12683708E-3,.2862E-4,0
JILIN-1 07,2018-008E,2026-07-02T06:48:20.452320,15.34976104,.00083102,97.1760,202.8110,17.8831,342.2704,0,U,43159,999,46731,.29043809E-3,.9789E-4,0
JILIN-1 08,2018-008F,2026-07-02T07:03:31.635360,15.33882842,.00069037,97.1796,202.1212,37.1891,322.9829,0,U,43160,999,46726,.20230907E-3,.6558E-4,0
S-NET D,2018-014G,2026-07-02T07:20:16.038816,15.16814606,.00072525,97.5349,88.0024,338.6967,21.3964,0,U,43186,999,46105,.29993031E-3,.5831E-4,0
S-NET B,2018-014H,2026-07-02T06:02:11.229504,15.16784336,.00077019,97.5354,87.9355,333.1236,26.9597,0,U,43187,999,46104,.28466985E-3,.5527E-4,0
S-NET A,2018-014J,2026-07-02T07:18:31.872384,15.16822911,.00076297,97.5364,88.1999,333.6682,26.4162,0,U,43188,999,46105,.30064904E-3,.5847E-4,0
S-NET C,2018-014K,2026-07-02T06:07:52.787712,15.16776471,.00087664,97.5384,88.2280,324.1062,35.9581,0,U,43189,999,45959,.29088204E-3,.5649E-4,0
PAZ,2018-020A,2026-07-02T06:09:40.209696,15.19157480,.0001716,97.4449,190.4281,88.0761,272.0670,0,U,43215,999,46329,.104699E-3,.2133E-4,0
GOES 17,2018-022A,2026-07-02T01:34:49.656864,1.00271917,.00007369,0.9728,85.4775,40.0959,88.7479,0,U,43226,999,3057,0,-.173E-5,0
LKW-4,2018-025A,2026-07-01T23:57:01.867392,15.63483587,.00026419,97.6345,355.0445,227.4979,132.6056,0,U,43236,999,46234,.52695226E-3,.48769E-3,0
ZHUHAI-1 OVS-02,2018-040B,2026-07-02T06:09:18.692640,15.25227057,.00036436,97.0378,199.5933,169.6199,190.5116,0,U,43440,999,45501,.36227902E-3,.904E-4,0
ZHUHAI-1 OHS-02,2018-040C,2026-07-02T07:09:59.562720,15.26101570,.00099776,97.0359,206.5876,165.1517,195.0018,0,U,43441,999,11658,.34884641E-3,.8945E-4,0
GAOFEN-6,2018-048A,2026-07-01T13:46:19.564320,14.76366587,.00118189,98.0968,245.2430,119.7907,240.4480,0,U,43484,999,43551,-.4446977E-5,-.83E-6,0
LUOJIA-1 01,2018-048B,2026-07-02T07:28:34.901184,14.87344496,.00105104,97.8106,261.2569,75.2480,284.9900,0,U,43485,999,43646,.41673895E-3,.3713E-4,0
PAKTES 1A,2018-056A,2026-07-02T06:57:04.922784,14.99158786,.00206607,98.1286,340.4193,59.5816,300.7444,0,U,43529,999,43418,.22015584E-3,.2624E-4,0
PRSS-1,2018-056B,2026-07-02T05:54:41.690304,14.82010437,.00013979,97.7818,250.6989,77.1707,282.9663,0,U,43530,999,43066,.51742303E-4,.36E-5,0
HAIYANG-1C,2018-068A,2026-07-02T07:32:55.666752,14.34183645,.00118889,98.5191,255.4038,54.0925,306.1362,0,U,43609,999,40925,.84188678E-4,.193E-5,0
SSTL S1-4,2018-071A,2026-07-02T06:28:25.365792,14.96192743,.00023284,97.5015,54.2554,100.9756,259.1728,0,U,43618,999,42519,.14146264E-3,.154E-4,0
HAIYANG-2B,2018-081A,2026-07-02T07:45:58.784256,13.79309267,.00003206,99.3278,191.8514,162.8875,197.2287,0,U,43655,999,38701,.31995311E-3,.284E-5,0
CFOSAT,2018-083A,2026-07-02T06:29:57.850944,15.16468498,.00022358,97.3603,187.3573,80.9600,279.1887,0,U,43662,999,42472,.19867535E-3,.3802E-4,0
TEN-KOH,2018-084G,2026-07-02T02:28:50.579616,15.02990092,.00106321,98.0738,16.0945,70.6277,289.6095,0,U,43677,999,41840,.15999948E-3,.2088E-4,0
DIWATA-2B,2018-084H,2026-07-02T05:47:02.429376,15.00516039,.00131128,98.1199,20.1062,123.5561,236.6916,0,U,43678,999,41847,.16033202E-3,.1958E-4,0
STARS-AO,2018-084J,2026-07-02T02:40:24.835584,15.17217668,.00035287,98.0482,38.0027,106.4558,253.7061,0,U,43679,999,41973,.34167732E-3,.672E-4,0
AUTCUBE 2,2018-084K,2026-07-01T11:25:59.647584,15.10183327,.00088945,98.0690,29.4083,4.2761,355.8541,0,U,43681,999,41908,.22752788E-3,.3647E-4,0
METOP-C,2018-087A,2026-07-02T06:31:15.363840,14.21516245,.00021445,98.6637,242.5991,110.2259,249.9150,0,U,43689,999,39697,.79621108E-4,.131E-5,0
ES'HAIL 2,2018-090A,2026-07-02T05:32:58.151040,1.00272976,.00022543,0.0187,28.4554,107.3914,253.4562,0,U,43700,999,2782,0,.155E-5,0
MOHAMMED VI-B,2018-095A,2026-07-02T06:47:56.997312,14.77066059,.0001608,97.9557,255.4005,98.0272,262.1120,0,U,43717,999,41041,.67697744E-4,.427E-5,0
HYSIS,2018-096A,2026-07-02T05:37:36.336576,14.78648240,.00018806,97.9838,249.8642,90.6413,269.5013,0,U,43719,999,40964,.18473266E-3,.1301E-4,0
COSMOS 2530 (RODNIK-S 16),2018-097A,2026-07-02T06:26:59.078112,12.42881401,.00195608,82.5121,212.9210,7.4411,352.6955,0,U,43751,999,34416,-.21185149E-3,-.19E-6,0
