ASNARO-2                
1 43152U 18007A   26181.79163405  .00002862  00000+0  12684-3 0  9995
2 43152  97.3968 188.5061 0001566  90.6962 269.4454 15.22425156469486
JILIN-1 07              
1 43159U 18008E   26183.28357005  .00009789  00000+0  29044-3 0  9993
2 43159  97.1760 202.8110 0008310  17.8831 342.2704 15.34976104467311
JILIN-1 08              
1 43160U 18008F   26183.29411615  .00006558  00000+0  20231-3 0  9994
2 43160  97.1796 202.1212 0006903  37.1891 322.9829 15.33882842467266
S-NET D                 
1 43186U 18014G   26183.30574119  .00005831  00000+0  29993-3 0  9997
2 43186  97.5349  88.0024 0007252 338.6967  21.3964 15.16814606461050
S-NET B                 
1 43187U 18014H   26183.25151886  .00005527  00000+0  28467-3 0  9991
2 43187  97.5354  87.9355 0007701 333.1236  26.9597 15.16784336461048
S-NET A                 
1 43188U 18014J   26183.30453556  .00005847  00000+0  30065-3 0  9999
2 43188  97.5364  88.1999 0007629 333.6682  26.4162 15.16822911461052
S-NET C                 
1 43189U 18014K   26183.25547208  .00005649  00000+0  29088-3 0  9995
2 43189  97.5384  88.2280 0008766 324.1062  35.9581 15.16776471459594
PAZ                     
1 43215U 18020A   26183.25671539  .00002133  00000+0  10470-3 0  9997
2 43215  97.4449 190.4281 0001716  88.0761 272.0670 15.19157480463293
GOES 17                 
1 43226U 18022A   26183.06585251 -.00000173  00000+0  00000+0 0  9992
2 43226   0.9728  85.4775 0000736  40.0959  88.7479  1.00271917 30570
LKW-4                   
1 43236U 18025A   26182.99793828  .00048769  00000+0  52695-3 0  9991
2 43236  97.6345 355.0445 0002641 227.4979 132.6056 15.63483587462345
ZHUHAI-1 OVS-02         
1 43440U 18040B   26183.25646635  .00009040  00000+0  36228-3 0  9991
2 43440  97.0378 199.5933 0003643 169.6199 190.5116 15.25227057455011
ZHUHAI-1 OHS-02         
1 43441U 18040C   26183.29860605  .00008945  00000+0  34885-3 0  9991
2 43441  97.0359 206.5876 0009977 165.1517 195.0018 15.26101570116586
GAOFEN-6                
1 43484U 18048A   26182.57383755 -.00000083  00000+0 -44470-5 0  9992
2 43484  98.0968 245.2430 0011818 119.7907 240.4480 14.76366587435511
LUOJIA-1 01             
1 43485U 18048B   26183.31151506  .00003713  00000+0  41674-3 0  9995
2 43485  97.8106 261.2569 0010510  75.2480 284.9900 14.87344496436466
PAKTES 1A               
1 43529U 18056A   26183.28964031  .00002624  00000+0  22016-3 0  9993
2 43529  98.1286 340.4193 0020660  59.5816 300.7444 14.99158786434181
PRSS-1                  
1 43530U 18056B   26183.24631586  .00000360  00000+0  51742-4 0  9991
2 43530  97.7818 250.6989 0001397  77.1707 282.9663 14.82010437430660
HAIYANG-1C              
1 43609U 18068A   26183.31453318  .00000193  00000+0  84189-4 0  9999
2 43609  98.5191 255.4038 0011888  54.0925 306.1362 14.34183645409255
SSTL S1-4               
1 43618U 18071A   26183.26973803  .00001540  00000+0  14146-3 0  9995
2 43618  97.5015  54.2554 0002328 100.9756 259.1728 14.96192743425190
HAIYANG-2B              
1 43655U 18081A   26183.32359704  .00000284  00000+0  31995-3 0  9997
2 43655  99.3278 191.8514 0000320 162.8875 197.2287 13.79309267387016
CFOSAT                  
1 43662U 18083A   26183.27080846  .00003802  00000+0  19868-3 0  9993
2 43662  97.3603 187.3573 0002235  80.9600 279.1887 15.16468498424723
TEN-KOH                 
1 43677U 18084G   26183.10336319  .00002088  00000+0  16000-3 0  9991
2 43677  98.0738  16.0945 0010632  70.6277 289.6095 15.02990092418403
DIWATA-2B               
1 43678U 18084H   26183.24100034  .00001958  00000+0  16033-3 0  9991
2 43678  98.1199  20.1062 0013112 123.5561 236.6916 15.00516039418476
STARS-AO                
1 43679U 18084J   26183.11139856  .00006720  00000+0  34168-3 0  9993
2 43679  98.0482  38.0027 0003528 106.4558 253.7061 15.17217668419731
AUTCUBE 2               
1 43681U 18084K   26182.47638481  .00003647  00000+0  22753-3 0  9994
2 43681  98.0690  29.4083 0008894   4.2761 355.8541 15.10183327419085
METOP-C                 
1 43689U 18087A   26183.27170560  .00000131  00000+0  79621-4 0  9995
2 43689  98.6637 242.5991 0002144 110.2259 249.9150 14.21516245396979
ES'HAIL 2               
1 43700U 18090A   26183.23122860  .00000155  00000+0  00000+0 0  9995
2 43700   0.0187  28.4554 0002254 107.3914 253.4562  1.00272976 27828
MOHAMMED VI-B           
1 43717U 18095A   26183.28329858  .00000427  00000+0  67698-4 0  9992
2 43717  97.9557 255.4005 0001608  98.0272 262.1120 14.77066059410419
HYSIS                   
1 43719U 18096A   26183.23444834  .00001301  00000+0  18473-3 0  9990
2 43719  97.9838 249.8642 0001880  90.6413 269.5013 14.78648240409648
COSMOS 2530 (RODNIK-S *)
1 43751U 18097A   26183.26873933 -.00000019  00000+0 -21185-3 0  9997
2 43751  82.5121 212.9210 0019560   7.4411 352.6955 12.42881401344160
